{"type": "FeatureCollection", "features": [ {"type": "Feature", "properties": {"norad_id": 49810, "name": "GSAT0224 (GALILEO 28)", "group": "gnss", "lat": 57.00424479087863, "lon": 83.51063486933228, "alt_km": 23226.284897920876, "timestamp": "2025-12-18T07:01:54.832954+00:00", "meta": {"OBJECT_NAME": "GSAT0224 (GALILEO 28)", "OBJECT_ID": "2021-116B", "EPOCH": "2025-12-16T23:13:52.406688", "MEAN_MOTION": 1.70476122, "ECCENTRICITY": 0.00037953, "INCLINATION": 57.2194, "RA_OF_ASC_NODE": 346.5971, "ARG_OF_PERICENTER": 257.7514, "MEAN_ANOMALY": 102.8295, "EPHEMERIS_TYPE": 0, "CLASSIFICATION_TYPE": "U", "NORAD_CAT_ID": 49810, "ELEMENT_SET_NO": 999, "REV_AT_EPOCH": 2510, "BSTAR": 0, "MEAN_MOTION_DOT": -7.9e-07, "MEAN_MOTION_DDOT": 0}, "tle": {"line1": "1 49810U 21116B   25350.96796767 -.00000079  00000+0  00000+0 0  9990", "line2": "2 49810  57.2194 346.5971 0003795 257.7514 102.8295  1.70476122 25107"}}, "geometry": {"type": "Point", "coordinates": [83.51063486933228, 57.00424479087863]}}, {"type": "Feature", "properties": {"norad_id": 52984, "name": "COSMOS 2557 (706K)", "group": "gnss", "lat": -54.36984300128944, "lon": -177.20496295866633, "alt_km": 19106.5929564179, "timestamp": "2025-12-18T07:01:54.832965+00:00", "meta": {"OBJECT_NAME": "COSMOS 2557 (706K)", "OBJECT_ID": "2022-075A", "EPOCH": "2025-12-16T02:19:59.542752", "MEAN_MOTION": 2.13101842, "ECCENTRICITY": 0.001368, "INCLINATION": 64.4074, "RA_OF_ASC_NODE": 320.9331, "ARG_OF_PERICENTER": 277.1677, "MEAN_ANOMALY": 82.672, "EPHEMERIS_TYPE": 0, "CLASSIFICATION_TYPE": "U", "NORAD_CAT_ID": 52984, "ELEMENT_SET_NO": 999, "REV_AT_EPOCH": 2681, "BSTAR": 0, "MEAN_MOTION_DOT": -7e-07, "MEAN_MOTION_DDOT": 0}, "tle": {"line1": "1 52984U 22075A   25350.09721693 -.00000070  00000+0  00000+0 0  9992", "line2": "2 52984  64.4074 320.9331 0013680 277.1677  82.6720  2.13101842 26815"}}, "geometry": {"type": "Point", "coordinates": [-177.20496295866633, -54.36984300128944]}}, {"type": "Feature", "properties": {"norad_id": 54031, "name": "COSMOS 2559 (707K)", "group": "gnss", "lat": 20.79078420707251, "lon": -28.574941993579163, "alt_km": 19156.839022217355, "timestamp": "2025-12-18T07:01:54.832978+00:00", "meta": {"OBJECT_NAME": "COSMOS 2559 (707K)", "OBJECT_ID": "2022-130A", "EPOCH": "2025-12-17T07:46:49.658304", "MEAN_MOTION": 2.13101395, "ECCENTRICITY": 0.00116575, "INCLINATION": 64.3796, "RA_OF_ASC_NODE": 320.9797, "ARG_OF_PERICENTER": 192.1273, "MEAN_ANOMALY": 167.8384, "EPHEMERIS_TYPE": 0, "CLASSIFICATION_TYPE": "U", "NORAD_CAT_ID": 54031, "ELEMENT_SET_NO": 999, "REV_AT_EPOCH": 2481, "BSTAR": 0, "MEAN_MOTION_DOT": -6.8e-07, "MEAN_MOTION_DDOT": 0}, "tle": {"line1": "1 54031U 22130A   25351.32418586 -.00000068  00000+0  00000+0 0  9997", "line2": "2 54031  64.3796 320.9797 0011657 192.1273 167.8384  2.13101395 24819"}}, "geometry": {"type": "Point", "coordinates": [-28.574941993579163, 20.79078420707251]}}, {"type": "Feature", "properties": {"norad_id": 54377, "name": "COSMOS 2564 (761)", "group": "gnss", "lat": 33.2363052252983, "lon": 0.6884977436488334, "alt_km": 19115.670280797316, "timestamp": "2025-12-18T07:01:54.832990+00:00", "meta": {"OBJECT_NAME": "COSMOS 2564 (761)", "OBJECT_ID": "2022-161A", "EPOCH": "2025-12-16T16:46:44.679072", "MEAN_MOTION": 2.13102099, "ECCENTRICITY": 0.00085776, "INCLINATION": 64.7384, "RA_OF_ASC_NODE": 198.7673, "ARG_OF_PERICENTER": 204.2808, "MEAN_ANOMALY": 155.7608, "EPHEMERIS_TYPE": 0, "CLASSIFICATION_TYPE": "U", "NORAD_CAT_ID": 54377, "ELEMENT_SET_NO": 999, "REV_AT_EPOCH": 2374, "BSTAR": 0, "MEAN_MOTION_DOT": 1.11e-06, "MEAN_MOTION_DDOT": 0}, "tle": {"line1": "1 54377U 22161A   25350.69912823  .00000111  00000+0  00000+0 0  9994", "line2": "2 54377  64.7384 198.7673 0008577 204.2808 155.7608  2.13102099 23747"}}, "geometry": {"type": "Point", "coordinates": [0.6884977436488334, 33.2363052252983]}}, {"type": "Feature", "properties": {"norad_id": 55268, "name": "GPS BIII-6  (PRN 28)", "group": "gnss", "lat": -40.761806608345765, "lon": 12.622464420378781, "alt_km": 20193.13892024197, "timestamp": "2025-12-18T07:01:54.833001+00:00", "meta": {"OBJECT_NAME": "GPS BIII-6  (PRN 28)", "OBJECT_ID": "2023-009A", "EPOCH": "2025-12-17T05:26:38.724576", "MEAN_MOTION": 2.00555443, "ECCENTRICITY": 0.00036765, "INCLINATION": 55.1057, "RA_OF_ASC_NODE": 155.6691, "ARG_OF_PERICENTER": 356.3023, "MEAN_ANOMALY": 186.6763, "EPHEMERIS_TYPE": 0, "CLASSIFICATION_TYPE": "U", "NORAD_CAT_ID": 55268, "ELEMENT_SET_NO": 999, "REV_AT_EPOCH": 2159, "BSTAR": 0, "MEAN_MOTION_DOT": 7.9e-07, "MEAN_MOTION_DDOT": 0}, "tle": {"line1": "1 55268U 23009A   25351.22683709  .00000079  00000+0  00000+0 0  9997", "line2": "2 55268  55.1057 155.6691 0003676 356.3023 186.6763  2.00555443 21590"}}, "geometry": {"type": "Point", "coordinates": [12.622464420378781, -40.761806608345765]}}, {"type": "Feature", "properties": {"norad_id": 56564, "name": "BEIDOU-3 G4 (C62)", "group": "gnss", "lat": 0.6215819548002091, "lon": -7.320592067564055, "alt_km": 35797.60339289734, "timestamp": "2025-12-18T07:01:54.833013+00:00", "meta": {"OBJECT_NAME": "BEIDOU-3 G4 (C62)", "OBJECT_ID": "2023-066A", "EPOCH": "2025-12-17T20:56:06.838368", "MEAN_MOTION": 1.00271722, "ECCENTRICITY": 0.00027648, "INCLINATION": 0.8039, "RA_OF_ASC_NODE": 302.4518, "ARG_OF_PERICENTER": 227.2526, "MEAN_ANOMALY": 31.1294, "EPHEMERIS_TYPE": 0, "CLASSIFICATION_TYPE": "U", "NORAD_CAT_ID": 56564, "ELEMENT_SET_NO": 999, "REV_AT_EPOCH": 957, "BSTAR": 0, "MEAN_MOTION_DOT": -8.5e-07, "MEAN_MOTION_DDOT": 0}, "tle": {"line1": "1 56564U 23066A   25351.87230137 -.00000085  00000+0  00000+0 0  9992", "line2": "2 56564   0.8039 302.4518 0002764 227.2526  31.1294  1.00271722  9579"}}, "geometry": {"type": "Point", "coordinates": [-7.320592067564055, 0.6215819548002091]}}, {"type": "Feature", "properties": {"norad_id": 56759, "name": "NVS-01 (IRNSS-1J)", "group": "gnss", "lat": 2.4519508541598904, "lon": -37.786543476129886, "alt_km": 35763.64253360655, "timestamp": "2025-12-18T07:01:54.833028+00:00", "meta": {"OBJECT_NAME": "NVS-01 (IRNSS-1J)", "OBJECT_ID": "2023-076A", "EPOCH": "2025-12-17T20:47:22.673760", "MEAN_MOTION": 1.00275155, "ECCENTRICITY": 0.00087769, "INCLINATION": 2.6062, "RA_OF_ASC_NODE": 251.4172, "ARG_OF_PERICENTER": 15.6346, "MEAN_ANOMALY": 261.0544, "EPHEMERIS_TYPE": 0, "CLASSIFICATION_TYPE": "U", "NORAD_CAT_ID": 56759, "ELEMENT_SET_NO": 999, "REV_AT_EPOCH": 929, "BSTAR": 0, "MEAN_MOTION_DOT": -3.07e-06, "MEAN_MOTION_DDOT": 0}, "tle": {"line1": "1 56759U 23076A   25351.86623465 -.00000307  00000+0  00000+0 0  9995", "line2": "2 56759   2.6062 251.4172 0008776  15.6346 261.0544  1.00275155  9293"}}, "geometry": {"type": "Point", "coordinates": [-37.786543476129886, 2.4519508541598904]}}, {"type": "Feature", "properties": {"norad_id": 57517, "name": "COSMOS 2569 (703K)", "group": "gnss", "lat": 42.08933149154964, "lon": -125.90639114996581, "alt_km": 19149.52844212285, "timestamp": "2025-12-18T07:01:54.833040+00:00", "meta": {"OBJECT_NAME": "COSMOS 2569 (703K)", "OBJECT_ID": "2023-114A", "EPOCH": "2025-12-17T15:37:24.355776", "MEAN_MOTION": 2.13104039, "ECCENTRICITY": 0.00107108, "INCLINATION": 65.1967, "RA_OF_ASC_NODE": 78.7475, "ARG_OF_PERICENTER": 286.9881, "MEAN_ANOMALY": 72.9145, "EPHEMERIS_TYPE": 0, "CLASSIFICATION_TYPE": "U", "NORAD_CAT_ID": 57517, "ELEMENT_SET_NO": 999, "REV_AT_EPOCH": 1839, "BSTAR": 0, "MEAN_MOTION_DOT": -4.6e-07, "MEAN_MOTION_DDOT": 0}, "tle": {"line1": "1 57517U 23114A   25351.65097634 -.00000046  00000+0  00000+0 0  9991", "line2": "2 57517  65.1967  78.7475 0010710 286.9881  72.9145  2.13104039 18392"}}, "geometry": {"type": "Point", "coordinates": [-125.90639114996581, 42.08933149154964]}}, {"type": "Feature", "properties": {"norad_id": 58654, "name": "BEIDOU-3 M28 (C50)", "group": "gnss", "lat": -27.933020118346352, "lon": 47.150433310195154, "alt_km": 21527.522802187395, "timestamp": "2025-12-18T07:01:54.833051+00:00", "meta": {"OBJECT_NAME": "BEIDOU-3 M28 (C50)", "OBJECT_ID": "2023-207A", "EPOCH": "2025-12-17T06:29:44.947968", "MEAN_MOTION": 1.86229839, "ECCENTRICITY": 0.00025948, "INCLINATION": 55.5883, "RA_OF_ASC_NODE": 68.448, "ARG_OF_PERICENTER": 271.6936, "MEAN_ANOMALY": 88.3013, "EPHEMERIS_TYPE": 0, "CLASSIFICATION_TYPE": "U", "NORAD_CAT_ID": 58654, "ELEMENT_SET_NO": 999, "REV_AT_EPOCH": 1345, "BSTAR": 0, "MEAN_MOTION_DOT": -7.5e-07, "MEAN_MOTION_DDOT": 0}, "tle": {"line1": "1 58654U 23207A   25351.27065912 -.00000075  00000+0  00000+0 0  9991", "line2": "2 58654  55.5883  68.4480 0002594 271.6936  88.3013  1.86229839 13452"}}, "geometry": {"type": "Point", "coordinates": [47.150433310195154, -27.933020118346352]}}, {"type": "Feature", "properties": {"norad_id": 58655, "name": "BEIDOU-3 M26 (C48)", "group": "gnss", "lat": 54.08288905522243, "lon": 177.54426736693307, "alt_km": 21531.98923636827, "timestamp": "2025-12-18T07:01:54.833062+00:00", "meta": {"OBJECT_NAME": "BEIDOU-3 M26 (C48)", "OBJECT_ID": "2023-207B", "EPOCH": "2025-12-17T14:31:30.906048", "MEAN_MOTION": 1.86231342, "ECCENTRICITY": 0.00040018, "INCLINATION": 55.5906, "RA_OF_ASC_NODE": 68.4229, "ARG_OF_PERICENTER": 257.9174, "MEAN_ANOMALY": 102.0639, "EPHEMERIS_TYPE": 0, "CLASSIFICATION_TYPE": "U", "NORAD_CAT_ID": 58655, "ELEMENT_SET_NO": 999, "REV_AT_EPOCH": 1344, "BSTAR": 0, "MEAN_MOTION_DOT": -7.2e-07, "MEAN_MOTION_DDOT": 0}, "tle": {"line1": "1 58655U 23207B   25351.60521882 -.00000072  00000+0  00000+0 0  9999", "line2": "2 58655  55.5906  68.4229 0004001 257.9174 102.0639  1.86231342 13445"}}, "geometry": {"type": "Point", "coordinates": [177.54426736693307, 54.08288905522243]}}]}